NORAD_CAT_ID,OBJECT_NAME,OBJECT_TYPE,EPOCH,MEAN_MOTION,ECCENTRICITY,INCLINATION,RA_OF_ASC_NODE,ARG_OF_PERICENTER,MEAN_ANOMALY,BSTAR,MEAN_MOTION_DOT,MEAN_MOTION_DDOT,TLE_LINE0,TLE_LINE1,TLE_LINE2,SEMIMAJOR_AXIS,PERIOD,APOGEE,PERIGEE,DECAYED
53416.0,STARLINK-4480,PAYLOAD,2023-02-13 10:17:50,15.08862896,0.0001909,53.2168,103.1691,90.5353,269.5858,0.0013823,0.00021794,0.0,0 STARLINK-4480,1 53416U 22097AE  23044.42905261  .00021794  00000-0  13823-2 0  9993,2 53416  53.2168 103.1691 0001909  90.5353 269.5858 15.08862896 29042,6917.81,95.436,540.996,538.355,0.0
53416.0,STARLINK-4480,PAYLOAD,2023-02-14 03:47:04,15.0884146,0.0001463,53.2148,99.9004,91.261,268.855,0.00035069,5.298e-05,0.0,0 STARLINK-4480,1 53416U 22097AE  23045.15769445  .00005298  00000-0  35069-3 0  9994,2 53416  53.2148  99.9004 0001463  91.2610 268.8550 15.08841460 29156,6917.876,95.437,540.753,538.729,0.0
53416.0,STARLINK-4480,PAYLOAD,2023-02-14 10:08:37,15.08846051,0.0001566,53.215,98.7115,95.2045,264.9126,0.0016384,0.00025888,0.0,0 STARLINK-4480,1 53416U 22097AE  23045.42265570  .00025888  00000-0  16384-2 0  9999,2 53416  53.2150  98.7115 0001566  95.2045 264.9126 15.08846051 29651,6917.862,95.437,540.81,538.644,0.0
53416.0,STARLINK-4480,PAYLOAD,2023-02-15 06:48:38,15.08861913,9.7e-05,53.2161,94.8427,80.2197,279.8905,0.001787,0.00028284,0.0,0 STARLINK-4480,1 53416U 22097AE  23046.28377632  .00028284  00000-0  17870-2 0  9991,2 53416  53.2161  94.8427 0000970  80.2197 279.8905 15.08861913 29324,6917.813,95.436,540.349,539.007,0.0
53416.0,STARLINK-4480,PAYLOAD,2023-02-15 09:59:24,15.08866431,9.71e-05,53.2171,94.2493,77.8001,282.31,0.0016719,0.0002644,0.0,0 STARLINK-4480,1 53416U 22097AE  23046.41625454  .00026440  00000-0  16719-2 0  9997,2 53416  53.2171  94.2493 0000971  77.8001 282.3100 15.08866431 29808,6917.8,95.436,540.336,538.993,0.0
53416.0,STARLINK-4480,PAYLOAD,2023-02-15 19:31:43,15.0884633,0.0001342,53.2173,92.4647,92.9147,267.1999,0.00032712,4.923e-05,0.0,0 STARLINK-4480,1 53416U 22097AE  23046.81369405  .00004923  00000-0  32712-3 0  9996,2 53416  53.2173  92.4647 0001342  92.9147 267.1999 15.08846330 29402,6917.861,95.437,540.654,538.798,0.0
53416.0,STARLINK-4480,PAYLOAD,2023-02-16 08:14:47,15.0886163,0.0001059,53.2171,90.0851,69.5099,290.6006,0.0012243,0.00019262,0.0,0 STARLINK-4480,1 53416U 22097AE  23047.34360692  .00019262  00000-0  12243-2 0  9992,2 53416  53.2171  90.0851 0001059  69.5099 290.6006 15.08861630 29480,6917.814,95.436,540.412,538.947,0.0
53416.0,STARLINK-4480,PAYLOAD,2023-02-16 19:22:28,15.08883823,6.99e-05,53.2172,88.0043,51.9567,308.1488,0.0015759,0.00024912,0.0,0 STARLINK-4480,1 53416U 22097AE  23047.80727787  .00024912  00000-0  15759-2 0  9998,2 53416  53.2172  88.0043 0000699  51.9567 308.1488 15.08883823 30013,6917.746,95.435,540.095,539.128,0.0
53416.0,STARLINK-4480,PAYLOAD,2023-02-17 03:19:25,15.0881958,0.0001508,53.2168,86.5185,91.7159,268.4006,-0.00014202,-2.546e-05,0.0,0 STARLINK-4480,1 53416U 22097AE  23048.13848822 -.00002546  00000-0 -14202-3 0  9993,2 53416  53.2168  86.5185 0001508  91.7159 268.4006 15.08819580 29603,6917.943,95.439,540.851,538.765,0.0
53416.0,STARLINK-4480,PAYLOAD,2023-02-17 12:51:44,15.08844972,0.0001586,53.2165,84.7352,79.0244,281.0927,0.0022682,0.00036,0.0,0 STARLINK-4480,1 53416U 22097AE  23048.53593315  .00036000  00000-0  22682-2 0  9991,2 53416  53.2165  84.7352 0001586  79.0244 281.0927 15.08844972 29668,6917.865,95.437,540.827,538.633,0.0
53416.0,STARLINK-4480,PAYLOAD,2023-02-17 19:13:17,15.08823875,0.0001504,53.2169,83.545,87.3385,272.7779,0.0017157,0.00027111,0.0,0 STARLINK-4480,1 53416U 22097AE  23048.80089753  .00027111  00000-0  17157-2 0  9991,2 53416  53.2169  83.5450 0001504  87.3385 272.7779 15.08823875 29702,6917.93,95.439,540.835,538.754,0.0
53416.0,STARLINK-4480,PAYLOAD,2023-02-18 11:07:09,15.08830182,0.0001705,53.2169,80.5717,89.0245,271.0942,0.00099837,0.00015632,0.0,0 STARLINK-4480,1 53416U 22097AE  23049.46330613  .00015632  00000-0  99837-3 0  9999,2 53416  53.2169  80.5717 0001705  89.0245 271.0942 15.08830182 29806,6917.91,95.438,540.955,538.596,0.0
53416.0,STARLINK-4480,PAYLOAD,2023-02-19 09:22:33,15.08853196,0.0001612,53.216,76.4071,87.5058,272.6119,0.00084596,0.00013206,0.0,0 STARLINK-4480,1 53416U 22097AE  23050.39066421  .00013206  00000-0  84596-3 0  9997,2 53416  53.2160  76.4071 0001612  87.5058 272.6119 15.08853196 30407,6917.84,95.437,540.82,538.59,0.0
53416.0,STARLINK-4480,PAYLOAD,2023-02-19 18:54:52,15.08849884,0.0001609,53.2158,74.6229,86.9142,273.2034,0.00045225,6.919e-05,0.0,0 STARLINK-4480,1 53416U 22097AE  23050.78810326  .00006919  00000-0  45225-3 0  9990,2 53416  53.2158  74.6229 0001609  86.9142 273.2034 15.08849884 30000,6917.85,95.437,540.828,538.602,0.0
53416.0,STARLINK-4480,PAYLOAD,2023-02-20 12:24:06,15.08854145,0.0001583,53.2163,71.3494,99.0292,261.0879,0.00037499,5.687e-05,0.0,0 STARLINK-4480,1 53416U 22097AE  23051.51673927  .00005687  00000-0  37499-3 0  9991,2 53416  53.2163  71.3494 0001583  99.0292 261.0879 15.08854145 30576,6917.837,95.437,540.797,538.607,0.0
53416.0,STARLINK-4480,PAYLOAD,2023-02-21 01:07:11,15.08836657,0.0001632,53.2171,68.9726,83.6898,276.428,6.6597e-05,7.72e-06,0.0,0 STARLINK-4480,1 53416U 22097AE  23052.04666521  .00000772  00000-0  66597-4 0  9994,2 53416  53.2171  68.9726 0001632  83.6898 276.4280 15.08836657 30193,6917.891,95.438,540.885,538.627,0.0
53416.0,STARLINK-4480,PAYLOAD,2023-02-21 07:28:44,15.08841986,0.000144,53.2183,67.7844,82.6508,277.4648,0.00015047,2.108e-05,0.0,0 STARLINK-4480,1 53416U 22097AE  23052.31162519  .00002108  00000-0  15047-3 0  9990,2 53416  53.2183  67.7844 0001440  82.6508 277.4648 15.08841986 30693,6917.874,95.437,540.735,538.743,0.0
53416.0,STARLINK-4480,PAYLOAD,2023-02-22 07:19:31,15.08851071,0.0001486,53.2166,63.3221,85.4261,274.6901,0.00053727,8.276e-05,0.0,0 STARLINK-4480,1 53416U 22097AE  23053.30522393  .00008276  00000-0  53727-3 0  9999,2 53416  53.2166  63.3221 0001486  85.4261 274.6901 15.08851071 30385,6917.847,95.437,540.74,538.684,0.0
53416.0,STARLINK-4480,PAYLOAD,2023-02-23 05:34:50,15.09013804,0.0001613,53.2167,59.1581,123.7726,236.342,0.0043879,0.00070581,0.0,0 STARLINK-4480,1 53416U 22097AE  23054.23252398  .00070581  00000-0  43879-2 0  9991,2 53416  53.2167  59.1581 0001613 123.7726 236.3420 15.09013804 30524,6917.349,95.427,540.33,538.098,0.0
53416.0,STARLINK-4480,PAYLOAD,2023-02-23 10:20:54,15.09150344,8.75e-05,53.2174,58.2667,64.5422,295.5661,0.0073928,0.00120405,0.0,0 STARLINK-4480,1 53416U 22097AE  23054.43118575  .00120405  00000-0  73928-2 0  9990,2 53416  53.2174  58.2667 0000875  64.5422 295.5661 15.09150344 31011,6916.932,95.418,539.402,538.192,0.0
53416.0,STARLINK-4480,PAYLOAD,2023-02-23 15:06:58,15.09234083,0.0001193,53.2184,57.3776,106.4656,253.6468,0.0080425,0.0013152,0.0,0 STARLINK-4480,1 53416U 22097AE  23054.62984325  .00131520  00000-0  80425-2 0  9995,2 53416  53.2184  57.3776 0001193 106.4656 253.6468 15.09234083 30586,6916.676,95.413,539.366,537.716,0.0
53416.0,STARLINK-4480,PAYLOAD,2023-02-23 16:42:18,15.0932329,0.0001332,53.217,57.0759,100.8676,259.2466,0.0098452,0.0016216,0.0,0 STARLINK-4480,1 53416U 22097AE  23054.69604208  .00162160  00000-0  98452-2 0  9994,2 53416  53.2170  57.0759 0001332 100.8676 259.2466 15.09323290 31056,6916.404,95.407,539.19,537.347,0.0
53416.0,STARLINK-4480,PAYLOAD,2023-02-24 00:38:57,15.09501584,0.0001942,53.2179,55.589,77.8058,282.3152,0.010015,0.00165858,0.0,0 STARLINK-4480,1 53416U 22097AE  23055.02705542  .00165858  00000-0  10015-1 0  9990,2 53416  53.2179  55.5890 0001942  77.8058 282.3152 15.09501584 30645,6915.859,95.396,539.067,536.381,0.0
53416.0,STARLINK-4480,PAYLOAD,2023-02-24 07:00:11,15.09750989,0.0001449,53.2184,54.3962,102.2345,257.881,0.012341,0.00207055,0.0,0 STARLINK-4480,1 53416U 22097AE  23055.29179970  .00207055  00000-0  12341-1 0  9999,2 53416  53.2184  54.3962 0001449 102.2345 257.8810 15.09750989 30689,6915.097,95.38,537.964,535.96,0.0
53416.0,STARLINK-4480,PAYLOAD,2023-02-24 11:46:05,15.09911749,0.0001541,53.2179,53.5029,104.7505,255.3658,0.012858,0.00217002,0.0,0 STARLINK-4480,1 53416U 22097AE  23055.49033925  .00217002  00000-0  12858-1 0  9996,2 53416  53.2179  53.5029 0001541 104.7505 255.3658 15.09911749 31177,6914.606,95.37,537.537,535.406,0.0
53416.0,STARLINK-4480,PAYLOAD,2023-02-24 18:00:00,15.10473399,0.0001396,53.2174,52.3343,93.7118,239.1731,-0.00037019,-6.449e-05,0.0,0 STARLINK-4480,1 53416U 22097AE  23055.75001157 -.00006449  00000-0 -37019-3 0  9998,2 53416  53.2174  52.3343 0001396  93.7118 239.1731 15.10473399 30754,6912.892,95.334,535.722,533.792,0.0
53416.0,STARLINK-4480,PAYLOAD,2023-02-24 22:00:00,15.10443905,0.0001449,53.2173,51.5839,104.0598,55.5998,0.0032302,0.00053842,0.0,0 STARLINK-4480,1 53416U 22097AE  23055.91667824  .00053842  00000-0  32302-2 0  9991,2 53416  53.2173  51.5839 0001449 104.0598  55.5998 15.10443905  1305,6912.982,95.336,535.849,533.846,0.0
53416.0,STARLINK-4480,PAYLOAD,2023-02-25 14:00:01,15.10468736,0.0001272,53.217,48.585,96.6374,90.1243,-0.0004718,-8.136e-05,0.0,0 STARLINK-4480,1 53416U 22097AE  23056.58334491 -.00008136  00000-0 -47180-3 0  9995,2 53416  53.2170  48.5850 0001272  96.6374  90.1243 15.10468736  1300,6912.906,95.335,535.651,533.892,0.0
53416.0,STARLINK-4480,PAYLOAD,2023-02-25 22:00:00,15.1045755,0.0001349,53.2171,47.0838,108.0579,92.2536,0.0029718,0.000495,0.0,0 STARLINK-4480,1 53416U 22097AE  23056.91667824  .00049500  00000-0  29718-2 0  9995,2 53416  53.2171  47.0838 0001349 108.0579  92.2536 15.10457550 30921,6912.941,95.335,535.738,533.873,0.0
53416.0,STARLINK-4480,PAYLOAD,2023-02-26 14:00:01,15.10473183,0.0001335,53.2168,44.0847,109.5228,117.9316,-0.00031508,-5.533e-05,0.0,0 STARLINK-4480,1 53416U 22097AE  23057.58334491 -.00005533  00000-0 -31508-3 0  9991,2 53416  53.2168  44.0847 0001335 109.5228 117.9316 15.10473183 31029,6912.893,95.334,535.681,533.835,0.0
